GLOBALSTAR M057         
1 25943U 99058A   24163.69759850 -.00000077  00000+0  14340-3 0  9998
2 25943  52.0002 319.6172 0001584 347.0751  13.0057 12.24787371121538
GLOBALSTAR M059         
1 25944U 99058B   24164.25709921 -.00000075  00000+0  13718-3 0  9992
2 25944  51.9995 127.9365 0000737 321.8018 128.7974 11.99962949529639
GLOBALSTAR M056         
1 25945U 99058C   24164.24949427 -.00000040  00000+0  55644-3 0  9995
2 25945  51.9935 139.4166 0000561 164.2442 327.2837 12.04776382118039
GLOBALSTAR M031         
1 25946U 99058D   24164.46687676 -.00000033  00000+0  57968-3 0  9998
2 25946  51.9980  53.2796 0001629 120.3620  51.0988 12.16010202119809
GLOBALSTAR M039         
1 25961U 99062A   24164.15141414 -.00000036  00000+0  37790-3 0  9995
2 25961  51.9861 315.7433 0002189 231.8739 128.1930 12.62293936133514
GLOBALSTAR M034         
1 25962U 99062B   24164.26965829 -.00000143  00000+0 -98916-3 0  9999
2 25962  51.9875 252.9453 0013821  65.0218 328.4992 11.79427236 94741
GLOBALSTAR M029         
1 25963U 99062C   24164.34295953 -.00000064  00000+0  28029-3 0  9992
2 25963  51.9829  16.0596 0003323 103.3680  67.4835 11.99879077124772
GLOBALSTAR M061         
1 25964U 99062D   24164.48627596 -.00000126  00000+0 -74756-3 0  9998
2 25964  51.9805  71.5144 0006475 354.8134 175.8003 11.76761693 77946
